[{"OBJECT_NAME":"STARLINK-35377","OBJECT_ID":"2025-243J","EPOCH":"2026-03-09T21:44:56.321088","MEAN_MOTION":15.30199722,"ECCENTRICITY":0.0001027,"INCLINATION":53.1575,"RA_OF_ASC_NODE":244.4825,"ARG_OF_PERICENTER":79.4953,"MEAN_ANOMALY":280.6163,"EPHEMERIS_TYPE":0,"CLASSIFICATION_TYPE":"U","NORAD_CAT_ID":66185,"ELEMENT_SET_NO":999,"REV_AT_EPOCH":2068,"BSTAR":0.0010294936,"MEAN_MOTION_DOT":0.00030255,"MEAN_MOTION_DDOT":0},{"OBJECT_NAME":"CZ-6A DEB","OBJECT_ID":"2024-140ABG","EPOCH":"2026-03-09T16:43:29.524800","MEAN_MOTION":15.18896608,"ECCENTRICITY":0.00616087,"INCLINATION":89.2171,"RA_OF_ASC_NODE":295.9508,"ARG_OF_PERICENTER":79.2706,"MEAN_ANOMALY":281.5467,"EPHEMERIS_TYPE":0,"CLASSIFICATION_TYPE":"U","NORAD_CAT_ID":61498,"ELEMENT_SET_NO":999,"REV_AT_EPOCH":8006,"BSTAR":0.0048163661,"MEAN_MOTION_DOT":0.0010689,"MEAN_MOTION_DDOT":0}]
